{
  "type": "FeatureCollection",
  "features": [
    {
      "type": "Feature",
      "properties": {
        "norad_id": 37238,
        "name": "INTELSAT 17 (IS-17)",
        "group": "intelsat",
        "lat": -0.02976507725961286,
        "lon": -90.26786605495326,
        "alt_km": 35775.066463313626,
        "timestamp": "2025-12-21T07:34:34.207905+00:00",
        "meta_object_name": "INTELSAT 17 (IS-17)",
        "meta_object_id": "2010-065B",
        "meta_epoch": "2025-12-20T22:06:16.032096",
        "meta_mean_motion": 1.00271504,
        "meta_eccentricity": 0.00028194,
        "meta_inclination": 0.0307,
        "meta_ra_of_asc_node": 70.0701,
        "meta_arg_of_pericenter": 221.6181,
        "meta_mean_anomaly": 195.6001,
        "meta_ephemeris_type": 0,
        "meta_classification_type": "U",
        "meta_norad_cat_id": 37238,
        "meta_element_set_no": 999,
        "meta_rev_at_epoch": 5146,
        "meta_bstar": 0,
        "meta_mean_motion_dot": 0,
        "meta_mean_motion_ddot": 0,
        "tle_line1": "1 37238U 10065B   25354.92101889  .00000000  00000+0  00000+0 0  9990",
        "tle_line2": "2 37238   0.0307  70.0701 0002819 221.6181 195.6001  1.00271504 51469"
      },
      "geometry": {
        "type": "Point",
        "coordinates": [
          -90.26786605495326,
          -0.02976507725961286
        ]
      }
    },
    {
      "type": "Feature",
      "properties": {
        "norad_id": 37392,
        "name": "INTELSAT 28 (IS-28)",
        "group": "intelsat",
        "lat": 1.3485353236228177,
        "lon": 172.02969973069244,
        "alt_km": 35789.59665766162,
        "timestamp": "2025-12-21T07:34:34.207915+00:00",
        "meta_object_name": "INTELSAT 28 (IS-28)",
        "meta_object_id": "2011-016A",
        "meta_epoch": "2025-12-20T21:38:26.198304",
        "meta_mean_motion": 1.00269764,
        "meta_eccentricity": 0.00036864,
        "meta_inclination": 1.3444,
        "meta_ra_of_asc_node": 84.9687,
        "meta_arg_of_pericenter": 188.5152,
        "meta_mean_anomaly": 109.1561,
        "meta_ephemeris_type": 0,
        "meta_classification_type": "U",
        "meta_norad_cat_id": 37392,
        "meta_element_set_no": 999,
        "meta_rev_at_epoch": 5149,
        "meta_bstar": 0,
        "meta_mean_motion_dot": -2.03e-06,
        "meta_mean_motion_ddot": 0,
        "tle_line1": "1 37392U 11016A   25354.90169211 -.00000203  00000+0  00000+0 0  9995",
        "tle_line2": "2 37392   1.3444  84.9687 0003686 188.5152 109.1561  1.00269764 51494"
      },
      "geometry": {
        "type": "Point",
        "coordinates": [
          172.02969973069244,
          1.3485353236228177
        ]
      }
    },
    {
      "type": "Feature",
      "properties": {
        "norad_id": 37834,
        "name": "INTELSAT 18 (IS-18)",
        "group": "intelsat",
        "lat": 0.03423141034651932,
        "lon": 23.792173969937384,
        "alt_km": 35786.74815695718,
        "timestamp": "2025-12-21T07:34:34.207926+00:00",
        "meta_object_name": "INTELSAT 18 (IS-18)",
        "meta_object_id": "2011-056A",
        "meta_epoch": "2025-12-20T14:05:11.189184",
        "meta_mean_motion": 1.00272416,
        "meta_eccentricity": 0.00016725,
        "meta_inclination": 0.0331,
        "meta_ra_of_asc_node": 280.5281,
        "meta_arg_of_pericenter": 6.0874,
        "meta_mean_anomaly": 194.1,
        "meta_ephemeris_type": 0,
        "meta_classification_type": "U",
        "meta_norad_cat_id": 37834,
        "meta_element_set_no": 999,
        "meta_rev_at_epoch": 5202,
        "meta_bstar": 0,
        "meta_mean_motion_dot": 7.7e-07,
        "meta_mean_motion_ddot": 0,
        "tle_line1": "1 37834U 11056A   25354.58693506  .00000077  00000+0  00000+0 0  9991",
        "tle_line2": "2 37834   0.0331 280.5281 0001672   6.0874 194.1000  1.00272416 52028"
      },
      "geometry": {
        "type": "Point",
        "coordinates": [
          23.792173969937384,
          0.03423141034651932
        ]
      }
    },
    {
      "type": "Feature",
      "properties": {
        "norad_id": 38098,
        "name": "INTELSAT 22 (IS-22)",
        "group": "intelsat",
        "lat": -0.03474178931405004,
        "lon": -84.13927820354012,
        "alt_km": 35778.77486310232,
        "timestamp": "2025-12-21T07:34:34.207937+00:00",
        "meta_object_name": "INTELSAT 22 (IS-22)",
        "meta_object_id": "2012-011A",
        "meta_epoch": "2025-12-20T22:08:00.864672",
        "meta_mean_motion": 1.00270592,
        "meta_eccentricity": 0.0001804,
        "meta_inclination": 0.0153,
        "meta_ra_of_asc_node": 41.0537,
        "meta_arg_of_pericenter": 236.4528,
        "meta_mean_anomaly": 216.3383,
        "meta_ephemeris_type": 0,
        "meta_classification_type": "U",
        "meta_norad_cat_id": 38098,
        "meta_element_set_no": 999,
        "meta_rev_at_epoch": 540,
        "meta_bstar": 0,
        "meta_mean_motion_dot": -3.5e-07,
        "meta_mean_motion_ddot": 0,
        "tle_line1": "1 38098U 12011A   25354.92223223 -.00000035  00000+0  00000+0 0  9994",
        "tle_line2": "2 38098   0.0153  41.0537 0001804 236.4528 216.3383  1.00270592  5403"
      },
      "geometry": {
        "type": "Point",
        "coordinates": [
          -84.13927820354012,
          -0.03474178931405004
        ]
      }
    },
    {
      "type": "Feature",
      "properties": {
        "norad_id": 38356,
        "name": "INTELSAT 19 (IS-19)",
        "group": "intelsat",
        "lat": 0.0026866421169105146,
        "lon": 9.800284143039606,
        "alt_km": 35788.940677859566,
        "timestamp": "2025-12-21T07:34:34.207948+00:00",
        "meta_object_name": "INTELSAT 19 (IS-19)",
        "meta_object_id": "2012-030A",
        "meta_epoch": "2025-12-20T20:52:00.645024",
        "meta_mean_motion": 1.002713,
        "meta_eccentricity": 0.00027457,
        "meta_inclination": 0.0115,
        "meta_ra_of_asc_node": 9.9431,
        "meta_arg_of_pericenter": 256.2341,
        "meta_mean_anomaly": 302.522,
        "meta_ephemeris_type": 0,
        "meta_classification_type": "U",
        "meta_norad_cat_id": 38356,
        "meta_element_set_no": 999,
        "meta_rev_at_epoch": 4866,
        "meta_bstar": 0,
        "meta_mean_motion_dot": -3.3e-07,
        "meta_mean_motion_ddot": 0,
        "tle_line1": "1 38356U 12030A   25354.86945191 -.00000033  00000+0  00000+0 0  9998",
        "tle_line2": "2 38356   0.0115   9.9431 0002745 256.2341 302.5220  1.00271300 48663"
      },
      "geometry": {
        "type": "Point",
        "coordinates": [
          9.800284143039606,
          0.0026866421169105146
        ]
      }
    },
    {
      "type": "Feature",
      "properties": {
        "norad_id": 38740,
        "name": "INTELSAT 20 (IS-20)",
        "group": "intelsat",
        "lat": -0.01213281289639018,
        "lon": -87.70085593180028,
        "alt_km": 35785.67445497189,
        "timestamp": "2025-12-21T07:34:34.207958+00:00",
        "meta_object_name": "INTELSAT 20 (IS-20)",
        "meta_object_id": "2012-043A",
        "meta_epoch": "2025-12-20T22:06:53.471808",
        "meta_mean_motion": 1.00272305,
        "meta_eccentricity": 0.00033801,
        "meta_inclination": 0.0095,
        "meta_ra_of_asc_node": 84.4462,
        "meta_arg_of_pericenter": 98.7981,
        "meta_mean_anomaly": 306.7158,
        "meta_ephemeris_type": 0,
        "meta_classification_type": "U",
        "meta_norad_cat_id": 38740,
        "meta_element_set_no": 999,
        "meta_rev_at_epoch": 4896,
        "meta_bstar": 0,
        "meta_mean_motion_dot": -1e-08,
        "meta_mean_motion_ddot": 0,
        "tle_line1": "1 38740U 12043A   25354.92145222 -.00000001  00000+0  00000+0 0  9998",
        "tle_line2": "2 38740   0.0095  84.4462 0003380  98.7981 306.7158  1.00272305 48969"
      },
      "geometry": {
        "type": "Point",
        "coordinates": [
          -87.70085593180028,
          -0.01213281289639018
        ]
      }
    },
    {
      "type": "Feature",
      "properties": {
        "norad_id": 38749,
        "name": "INTELSAT 21 (IS-21)",
        "group": "intelsat",
        "lat": -0.002441647941231124,
        "lon": 145.75679899438884,
        "alt_km": 35788.712352824834,
        "timestamp": "2025-12-21T07:34:34.207969+00:00",
        "meta_object_name": "INTELSAT 21 (IS-21)",
        "meta_object_id": "2012-045A",
        "meta_epoch": "2025-12-20T21:30:49.427424",
        "meta_mean_motion": 1.00272202,
        "meta_eccentricity": 0.00014994,
        "meta_inclination": 0.0242,
        "meta_ra_of_asc_node": 290.4648,
        "meta_arg_of_pericenter": 330.3251,
        "meta_mean_anomaly": 93.6408,
        "meta_ephemeris_type": 0,
        "meta_classification_type": "U",
        "meta_norad_cat_id": 38749,
        "meta_element_set_no": 999,
        "meta_rev_at_epoch": 4873,
        "meta_bstar": 0,
        "meta_mean_motion_dot": -2.62e-06,
        "meta_mean_motion_ddot": 0,
        "tle_line1": "1 38749U 12045A   25354.89640541 -.00000262  00000+0  00000+0 0  9998",
        "tle_line2": "2 38749   0.0242 290.4648 0001499 330.3251  93.6408  1.00272202 48732"
      },
      "geometry": {
        "type": "Point",
        "coordinates": [
          145.75679899438884,
          -0.002441647941231124
        ]
      }
    }
  ]
}